ALOS (DAICHI)           
1 28931U 06002A   25338.59240004  .00003252  00000+0  55732-3 0  9992
2 28931  98.1078 290.1378 0000785 107.4818 252.6473 14.69448300 59515
H-2A R/B                
1 28932U 06002B   25338.65846729  .00022453  00000+0  11829-2 0  9998
2 28932  98.2314 112.7487 0054497 203.8833 155.9867 15.14313704 80041
RESURS-DK 1             
1 29228U 06021A   25338.56150887  .00006020  00000+0  35472-3 0  9994
2 29228  69.9331 122.9706 0007798 264.4868  95.5408 15.12088390 73145
CZ-4B R/B               
1 29507U 06046C   25338.64946741  .00011131  00000+0  57905-3 0  9996
2 29507  97.5744  18.8104 0032825 235.4444 124.3690 15.15746565 45648
CZ-2C R/B               
1 31114U 07010B   25338.54618638  .00000353  00000+0  18158-3 0  9996
2 31114  98.3974  91.6095 0058542 209.9408 149.8417 14.20204657966217
COSMO-SKYMED 1          
1 31598U 07023A   25338.62652499  .00007512  00000+0  68030-3 0  9996
2 31598  97.8837 163.9732 0001320  80.1014 280.0356 14.95673686   695
COSMOS 2428             
1 31792U 07029A   25338.59660866  .00000079  00000+0  67967-4 0  9991
2 31792  70.9372  42.9770 0003207  35.5976 324.5359 14.12887382950669
SL-16 R/B               
1 31793U 07029B   25338.55092935 -.00000165  00000+0 -60794-4 0  9993
2 31793  70.9768  12.3719 0002415 265.4154 204.3479 14.14816055951913
KORONAS-FOTON           
1 33504U 09003A   25338.57286649  .00021444  00000+0  51860-3 0  9992
2 33504  82.4315  14.5671 0012777 134.4930 225.7363 15.40919255931082
CZ-2C R/B               
1 37731U 11030B   25338.49688971  .00003672  00000+0  47181-3 0  9990
2 37731  97.8399 292.7866 0051668 301.2122 180.6184 14.80858249776002
H-2A R/B                
1 38341U 12025E   25338.47096258  .00007726  00000+0  71047-3 0  9994
2 38341  98.4580 293.0642 0043943 264.2297  95.3911 14.94361149733997
SHIJIAN-16 (SJ-16)      
1 39358U 13057A   25338.62266766  .00002550  00000+0  25395-3 0  9994
2 39358  74.9735   5.0128 0017425 338.9357  21.1111 14.91954590657325
