CCSDS_OMM_VERS = 2.0
CREATION_DATE  = 
ORIGINATOR     = 

OBJECT_NAME    = ALOS (DAICHI)
OBJECT_ID      = 2006-002A
CENTER_NAME    = EARTH
REF_FRAME      = TEME
TIME_SYSTEM    = UTC
MEAN_ELEMENT_THEORY = SGP/SGP4

EPOCH          = 2025-12-04T14:13:03.363456
MEAN_MOTION    = 14.69448300
ECCENTRICITY   = .0000785
INCLINATION    = 98.1078
RA_OF_ASC_NODE = 290.1378
ARG_OF_PERICENTER = 107.4818
MEAN_ANOMALY   = 252.6473

EPHEMERIS_TYPE = 0
CLASSIFICATION_TYPE = U
NORAD_CAT_ID   = 28931
ELEMENT_SET_NO = 999
REV_AT_EPOCH   = 5951
BSTAR          = .55732457E-3
MEAN_MOTION_DOT = .3252E-4
MEAN_MOTION_DDOT = 0

CCSDS_OMM_VERS = 2.0
CREATION_DATE  = 
ORIGINATOR     = 

OBJECT_NAME    = H-2A R/B
OBJECT_ID      = 2006-002B
CENTER_NAME    = EARTH
REF_FRAME      = TEME
TIME_SYSTEM    = UTC
MEAN_ELEMENT_THEORY = SGP/SGP4

EPOCH          = 2025-12-04T15:48:11.573856
MEAN_MOTION    = 15.14313704
ECCENTRICITY   = .00544977
INCLINATION    = 98.2314
RA_OF_ASC_NODE = 112.7487
ARG_OF_PERICENTER = 203.8833
MEAN_ANOMALY   = 155.9867

EPHEMERIS_TYPE = 0
CLASSIFICATION_TYPE = U
NORAD_CAT_ID   = 28932
ELEMENT_SET_NO = 999
REV_AT_EPOCH   = 8004
BSTAR          = .11828623E-2
MEAN_MOTION_DOT = .22453E-3
MEAN_MOTION_DDOT = 0

CCSDS_OMM_VERS = 2.0
CREATION_DATE  = 
ORIGINATOR     = 

OBJECT_NAME    = RESURS-DK 1
OBJECT_ID      = 2006-021A
CENTER_NAME    = EARTH
REF_FRAME      = TEME
TIME_SYSTEM    = UTC
MEAN_ELEMENT_THEORY = SGP/SGP4

EPOCH          = 2025-12-04T13:28:34.366368
MEAN_MOTION    = 15.12088390
ECCENTRICITY   = .00077981
INCLINATION    = 69.9331
RA_OF_ASC_NODE = 122.9706
ARG_OF_PERICENTER = 264.4868
MEAN_ANOMALY   = 95.5408

EPHEMERIS_TYPE = 0
CLASSIFICATION_TYPE = U
NORAD_CAT_ID   = 29228
ELEMENT_SET_NO = 999
REV_AT_EPOCH   = 7314
BSTAR          = .35472254E-3
MEAN_MOTION_DOT = .602E-4
MEAN_MOTION_DDOT = 0

CCSDS_OMM_VERS = 2.0
CREATION_DATE  = 
ORIGINATOR     = 

OBJECT_NAME    = CZ-4B R/B
OBJECT_ID      = 2006-046C
CENTER_NAME    = EARTH
REF_FRAME      = TEME
TIME_SYSTEM    = UTC
MEAN_ELEMENT_THEORY = SGP/SGP4

EPOCH          = 2025-12-04T15:35:13.984224
MEAN_MOTION    = 15.15746565
ECCENTRICITY   = .00328257
INCLINATION    = 97.5744
RA_OF_ASC_NODE = 18.8104
ARG_OF_PERICENTER = 235.4444
MEAN_ANOMALY   = 124.3690

EPHEMERIS_TYPE = 0
CLASSIFICATION_TYPE = U
NORAD_CAT_ID   = 29507
ELEMENT_SET_NO = 999
REV_AT_EPOCH   = 4564
BSTAR          = .57905454E-3
MEAN_MOTION_DOT = .11131E-3
MEAN_MOTION_DDOT = 0

CCSDS_OMM_VERS = 2.0
CREATION_DATE  = 
ORIGINATOR     = 

OBJECT_NAME    = CZ-2C R/B
OBJECT_ID      = 2007-010B
CENTER_NAME    = EARTH
REF_FRAME      = TEME
TIME_SYSTEM    = UTC
MEAN_ELEMENT_THEORY = SGP/SGP4

EPOCH          = 2025-12-04T13:06:30.503232
MEAN_MOTION    = 14.20204657
ECCENTRICITY   = .00585421
INCLINATION    = 98.3974
RA_OF_ASC_NODE = 91.6095
ARG_OF_PERICENTER = 209.9408
MEAN_ANOMALY   = 149.8417

EPHEMERIS_TYPE = 0
CLASSIFICATION_TYPE = U
NORAD_CAT_ID   = 31114
ELEMENT_SET_NO = 999
REV_AT_EPOCH   = 96621
BSTAR          = .18157928E-3
MEAN_MOTION_DOT = .353E-5
MEAN_MOTION_DDOT = 0

CCSDS_OMM_VERS = 2.0
CREATION_DATE  = 
ORIGINATOR     = 

OBJECT_NAME    = COSMO-SKYMED 1
OBJECT_ID      = 2007-023A
CENTER_NAME    = EARTH
REF_FRAME      = TEME
TIME_SYSTEM    = UTC
MEAN_ELEMENT_THEORY = SGP/SGP4

EPOCH          = 2025-12-04T15:02:11.759136
MEAN_MOTION    = 14.95673686
ECCENTRICITY   = .00013203
INCLINATION    = 97.8837
RA_OF_ASC_NODE = 163.9732
ARG_OF_PERICENTER = 80.1014
MEAN_ANOMALY   = 280.0356

EPHEMERIS_TYPE = 0
CLASSIFICATION_TYPE = U
NORAD_CAT_ID   = 31598
ELEMENT_SET_NO = 999
REV_AT_EPOCH   = 69
BSTAR          = .68029866E-3
MEAN_MOTION_DOT = .7512E-4
MEAN_MOTION_DDOT = 0

CCSDS_OMM_VERS = 2.0
CREATION_DATE  = 
ORIGINATOR     = 

OBJECT_NAME    = COSMOS 2428
OBJECT_ID      = 2007-029A
CENTER_NAME    = EARTH
REF_FRAME      = TEME
TIME_SYSTEM    = UTC
MEAN_ELEMENT_THEORY = SGP/SGP4

EPOCH          = 2025-12-04T14:19:06.988224
MEAN_MOTION    = 14.12887382
ECCENTRICITY   = .00032075
INCLINATION    = 70.9372
RA_OF_ASC_NODE = 42.9770
ARG_OF_PERICENTER = 35.5976
MEAN_ANOMALY   = 324.5359

EPHEMERIS_TYPE = 0
CLASSIFICATION_TYPE = U
NORAD_CAT_ID   = 31792
ELEMENT_SET_NO = 999
REV_AT_EPOCH   = 95066
BSTAR          = .67967453E-4
MEAN_MOTION_DOT = .79E-6
MEAN_MOTION_DDOT = 0

CCSDS_OMM_VERS = 2.0
CREATION_DATE  = 
ORIGINATOR     = 

OBJECT_NAME    = SL-16 R/B
OBJECT_ID      = 2007-029B
CENTER_NAME    = EARTH
REF_FRAME      = TEME
TIME_SYSTEM    = UTC
MEAN_ELEMENT_THEORY = SGP/SGP4

EPOCH          = 2025-12-04T13:13:20.295840
MEAN_MOTION    = 14.14816055
ECCENTRICITY   = .00024151
INCLINATION    = 70.9768
RA_OF_ASC_NODE = 12.3719
ARG_OF_PERICENTER = 265.4154
MEAN_ANOMALY   = 204.3479

EPHEMERIS_TYPE = 0
CLASSIFICATION_TYPE = U
NORAD_CAT_ID   = 31793
ELEMENT_SET_NO = 999
REV_AT_EPOCH   = 95191
BSTAR          = -.60794452E-4
MEAN_MOTION_DOT = -.165E-5
MEAN_MOTION_DDOT = 0

CCSDS_OMM_VERS = 2.0
CREATION_DATE  = 
ORIGINATOR     = 

OBJECT_NAME    = KORONAS-FOTON
OBJECT_ID      = 2009-003A
CENTER_NAME    = EARTH
REF_FRAME      = TEME
TIME_SYSTEM    = UTC
MEAN_ELEMENT_THEORY = SGP/SGP4

EPOCH          = 2025-12-04T13:44:55.664736
MEAN_MOTION    = 15.40919255
ECCENTRICITY   = .00127774
INCLINATION    = 82.4315
RA_OF_ASC_NODE = 14.5671
ARG_OF_PERICENTER = 134.4930
MEAN_ANOMALY   = 225.7363

EPHEMERIS_TYPE = 0
CLASSIFICATION_TYPE = U
NORAD_CAT_ID   = 33504
ELEMENT_SET_NO = 999
REV_AT_EPOCH   = 93108
BSTAR          = .51859726E-3
MEAN_MOTION_DOT = .21444E-3
MEAN_MOTION_DDOT = 0

CCSDS_OMM_VERS = 2.0
CREATION_DATE  = 
ORIGINATOR     = 

OBJECT_NAME    = CZ-2C R/B
OBJECT_ID      = 2011-030B
CENTER_NAME    = EARTH
REF_FRAME      = TEME
TIME_SYSTEM    = UTC
MEAN_ELEMENT_THEORY = SGP/SGP4

EPOCH          = 2025-12-04T11:55:31.270944
MEAN_MOTION    = 14.80858249
ECCENTRICITY   = .00516683
INCLINATION    = 97.8399
RA_OF_ASC_NODE = 292.7866
ARG_OF_PERICENTER = 301.2122
MEAN_ANOMALY   = 180.6184

EPHEMERIS_TYPE = 0
CLASSIFICATION_TYPE = U
NORAD_CAT_ID   = 37731
ELEMENT_SET_NO = 999
REV_AT_EPOCH   = 77600
BSTAR          = .47181146E-3
MEAN_MOTION_DOT = .3672E-4
MEAN_MOTION_DDOT = 0

CCSDS_OMM_VERS = 2.0
CREATION_DATE  = 
ORIGINATOR     = 

OBJECT_NAME    = H-2A R/B
OBJECT_ID      = 2012-025E
CENTER_NAME    = EARTH
REF_FRAME      = TEME
TIME_SYSTEM    = UTC
MEAN_ELEMENT_THEORY = SGP/SGP4

EPOCH          = 2025-12-04T11:18:11.166912
MEAN_MOTION    = 14.94361149
ECCENTRICITY   = .00439433
INCLINATION    = 98.4580
RA_OF_ASC_NODE = 293.0642
ARG_OF_PERICENTER = 264.2297
MEAN_ANOMALY   = 95.3911

EPHEMERIS_TYPE = 0
CLASSIFICATION_TYPE = U
NORAD_CAT_ID   = 38341
ELEMENT_SET_NO = 999
REV_AT_EPOCH   = 73399
BSTAR          = .71046787E-3
MEAN_MOTION_DOT = .7726E-4
MEAN_MOTION_DDOT = 0

CCSDS_OMM_VERS = 2.0
CREATION_DATE  = 
ORIGINATOR     = 

OBJECT_NAME    = SHIJIAN-16 (SJ-16)
OBJECT_ID      = 2013-057A
CENTER_NAME    = EARTH
REF_FRAME      = TEME
TIME_SYSTEM    = UTC
MEAN_ELEMENT_THEORY = SGP/SGP4

EPOCH          = 2025-12-04T14:56:38.485824
MEAN_MOTION    = 14.91954590
ECCENTRICITY   = .00174251
INCLINATION    = 74.9735
RA_OF_ASC_NODE = 5.0128
ARG_OF_PERICENTER = 338.9357
MEAN_ANOMALY   = 21.1111

EPHEMERIS_TYPE = 0
CLASSIFICATION_TYPE = U
NORAD_CAT_ID   = 39358
ELEMENT_SET_NO = 999
REV_AT_EPOCH   = 65732
BSTAR          = .25394598E-3
MEAN_MOTION_DOT = .255E-4
MEAN_MOTION_DDOT = 0

